$$SOE
2461302.500000000, A.D. 2026-Sep-19 00:00:00.0000, 2.503808103333624E+08, 5.860129766146597E+07, -2.829142832675610E+06,
2461309.500000000, A.D. 2026-Sep-26 00:00:00.0000, 2.433574802580832E+08, 6.778452238453506E+07, -1.568569259319536E+06,
2461316.500000000, A.D. 2026-Oct-03 00:00:00.0000, 2.356013198826009E+08, 7.676329020971346E+07, -3.033060687854998E+05,
2461323.500000000, A.D. 2026-Oct-10 00:00:00.0000, 2.270933464722248E+08, 8.549670920760386E+07, 9.628846324805655E+05,
2461330.500000000, A.D. 2026-Oct-17 00:00:00.0000, 2.178137293135517E+08, 9.393915115624966E+07, 2.225755064537026E+06,
2461337.500000000, A.D. 2026-Oct-24 00:00:00.0000, 2.077419403602811E+08, 1.020393869033030E+08, 3.480471869985595E+06,
2461344.500000000, A.D. 2026-Oct-31 00:00:00.0000, 1.968570018385299E+08, 1.097395455978773E+08, 4.721493486153252E+06,
2461351.500000000, A.D. 2026-Nov-07 00:00:00.0000, 1.851378750543155E+08, 1.169738578579465E+08, 5.942418792321943E+06,
2461358.500000000, A.D. 2026-Nov-14 00:00:00.0000, 1.725640544734817E+08, 1.236671360025539E+08, 7.135799473646104E+06,
2461365.500000000, A.D. 2026-Nov-21 00:00:00.0000, 1.591164588542573E+08, 1.297329366426256E+08, 8.292906763520934E+06,
2461372.500000000, A.D. 2026-Nov-28 00:00:00.0000, 1.447787560741074E+08, 1.350713415953747E+08, 9.403440658418261E+06,
2461379.500000000, A.D. 2026-Dec-05 00:00:00.0000, 1.295393275573822E+08, 1.395662961406348E+08, 1.045516721266986E+07,
2461386.500000000, A.D. 2026-Dec-12 00:00:00.0000, 1.133941690399800E+08, 1.430824640199789E+08, 1.143346849303325E+07,
2461393.500000000, A.D. 2026-Dec-19 00:00:00.0000, 9.635115847117728E+07, 1.454616064795470E+08, 1.232079024714864E+07,
2461400.500000000, A.D. 2026-Dec-26 00:00:00.0000, 7.843631385404508E+07, 1.465186121859742E+08, 1.309597822300665E+07,
2461407.500000000, A.D. 2027-Jan-02 00:00:00.0000, 5.970291304402629E+07, 1.460375604729091E+08, 1.373351273620850E+07,
2461414.500000000, A.D. 2027-Jan-09 00:00:00.0000, 4.024462766255971E+07, 1.437687047333247E+08, 1.420269578889271E+07,
2461421.500000000, A.D. 2027-Jan-16 00:00:00.0000, 2.021401726870232E+07, 1.394281993825541E+08, 1.446694008763674E+07,
2461428.500000000, A.D. 2027-Jan-23 00:00:00.0000, -1.524995151923740E+05, 1.327039998510467E+08, 1.448349297739384E+07,
2461435.500000000, A.D. 2027-Jan-30 00:00:00.0000, -2.050351727773985E+07, 1.232737716449735E+08, 1.420424378723835E+07,
2461442.500000000, A.D. 2027-Feb-06 00:00:00.0000, -4.033978274854208E+07, 1.108433104555080E+08, 1.357870503162447E+07,
2461449.500000000, A.D. 2027-Feb-13 00:00:00.0000, -5.899254145713191E+07, 9.521437165517369E+07, 1.256061491654381E+07,
2461456.500000000, A.D. 2027-Feb-20 00:00:00.0000, -7.563833784534921E+07, 7.638286329843597E+07, 1.111919529272073E+07,
2461463.500000000, A.D. 2027-Feb-27 00:00:00.0000, -8.938222100059991E+07, 5.464472983020341E+07, 9.253768426263243E+06,
2461470.500000000, A.D. 2027-Mar-06 00:00:00.0000, -9.942102968523817E+07, 3.065275926283609E+07, 7.005969528909093E+06,
2461477.500000000, A.D. 2027-Mar-13 00:00:00.0000, -1.052396479816787E+08, 5.358829243654823E+06, 4.460676228878573E+06,
2461484.500000000, A.D. 2027-Mar-20 00:00:00.0000, -1.067387999810740E+08, -2.016594613013831E+07, 1.731094877938080E+06,
2461491.500000000, A.D. 2027-Mar-27 00:00:00.0000, -1.042195003661624E+08, -4.494914085408482E+07, -1.065589714895589E+06,
2461498.500000000, A.D. 2027-Apr-03 00:00:00.0000, -9.824838284003659E+07, -6.826450614010268E+07, -3.829268546067819E+06,
2461505.500000000, A.D. 2027-Apr-10 00:00:00.0000, -8.949381021263131E+07, -8.966760611043051E+07, -6.486833542769480E+06,
2461512.500000000, A.D. 2027-Apr-17 00:00:00.0000, -7.860347143130881E+07, -1.089520111542988E+08, -8.991906089141414E+06,
2461519.500000000, A.D. 2027-Apr-24 00:00:00.0000, -6.614128105033343E+07, -1.260780331613274E+08, -1.131938549418569E+07,
2461526.500000000, A.D. 2027-May-01 00:00:00.0000, -5.256887293563353E+07, -1.411075604768345E+08, -1.345902067097262E+07,
2461533.500000000, A.D. 2027-May-08 00:00:00.0000, -3.825111775009564E+07, -1.541565019690315E+08, -1.541001837358589E+07,
2461540.500000000, A.D. 2027-May-15 00:00:00.0000, -2.347098521865947E+07, -1.653642310933172E+08, -1.717716206753375E+07,
2461547.500000000, A.D. 2027-May-22 00:00:00.0000, -8.445940184011104E+06, -1.748756129060043E+08, -1.876824701872294E+07,
2461554.500000000, A.D. 2027-May-29 00:00:00.0000, 6.657412821301606E+06, -1.828312438561406E+08, -2.019247593324161E+07,
2461561.500000000, A.D. 2027-Jun-05 00:00:00.0000, 2.171137736714412E+07, -1.893626685342611E+08, -2.145949689461738E+07,
2461568.500000000, A.D. 2027-Jun-12 00:00:00.0000, 3.661783309392893E+07, -1.945904600781292E+08, -2.257885027580296E+07,
2461575.500000000, A.D. 2027-Jun-19 00:00:00.0000, 5.130111030586220E+07, -1.986238720073537E+08, -2.355966837012793E+07,
2461582.500000000, A.D. 2027-Jun-26 00:00:00.0000, 6.570260561104471E+07, -2.015613017227018E+08, -2.441052771452489E+07,
2461589.500000000, A.D. 2027-Jul-03 00:00:00.0000, 7.977672711616641E+07, -2.034911323031752E+08, -2.513939167196493E+07,
2461596.500000000, A.D. 2027-Jul-10 00:00:00.0000, 9.348783859498580E+07, -2.044927126895599E+08, -2.575360490390505E+07,
2461603.500000000, A.D. 2027-Jul-17 00:00:00.0000, 1.068079490004499E+08, -2.046373484586564E+08, -2.625991641185015E+07,
2461610.500000000, A.D. 2027-Jul-24 00:00:00.0000, 1.197149573373835E+08, -2.039892392431664E+08, -2.666451714576100E+07,
2461617.500000000, A.D. 2027-Jul-31 00:00:00.0000, 1.321913123911625E+08, -2.026063342657960E+08, -2.697308391726625E+07,
2461624.500000000, A.D. 2027-Aug-07 00:00:00.0000, 1.442229831190476E+08, -2.005410960567782E+08, -2.719082475638455E+07,
2461631.500000000, A.D. 2027-Aug-14 00:00:00.0000, 1.557986606141277E+08, -1.978411740828920E+08, -2.732252290623304E+07,
2461638.500000000, A.D. 2027-Aug-21 00:00:00.0000, 1.669091353601401E+08, -1.945499980834395E+08, -2.737257842170417E+07,
2461645.500000000, A.D. 2027-Aug-28 00:00:00.0000, 1.775468108704686E+08, -1.907072983409230E+08, -2.734504694668268E+07,
2461652.500000000, A.D. 2027-Sep-04 00:00:00.0000, 1.877053208894655E+08, -1.863495592473971E+08, -2.724367514144974E+07,
2461659.500000000, A.D. 2027-Sep-11 00:00:00.0000, 1.973792249948568E+08, -1.815104153386834E+08, -2.707193272315995E+07,
2461666.500000000, A.D. 2027-Sep-18 00:00:00.0000, 2.065637647818206E+08, -1.762209982527596E+08, -2.683304136537751E+07,
2461673.500000000, A.D. 2027-Sep-25 00:00:00.0000, 2.152546672117929E+08, -1.705102416674119E+08, -2.653000073865464E+07,
2461680.500000000, A.D. 2027-Oct-02 00:00:00.0000, 2.234479847605641E+08, -1.644051503311853E+08, -2.616561198153792E+07,
2461687.500000000, A.D. 2027-Oct-09 00:00:00.0000, 2.311399643448872E+08, -1.579310385502917E+08, -2.574249889328300E+07,
2461694.500000000, A.D. 2027-Oct-16 00:00:00.0000, 2.383269388480741E+08, -1.511117428372303E+08, -2.526312713701845E+07,
2461701.500000000, A.D. 2027-Oct-23 00:00:00.0000, 2.450052366288299E+08, -1.439698127531224E+08, -2.472982173891801E+07,
2461708.500000000, A.D. 2027-Oct-30 00:00:00.0000, 2.511711055688101E+08, -1.365266828330684E+08, -2.414478311053579E+07,
2461715.500000000, A.D. 2027-Nov-06 00:00:00.0000, 2.568206474816751E+08, -1.288028275382875E+08, -2.351010161987364E+07,
2461722.500000000, A.D. 2027-Nov-13 00:00:00.0000, 2.619497584855392E+08, -1.208179040182290E+08, -2.282777090518508E+07,
2461729.500000000, A.D. 2027-Nov-20 00:00:00.0000, 2.665540762962379E+08, -1.125908872642992E+08, -2.209970056675231E+07,
2461736.500000000, A.D. 2027-Nov-27 00:00:00.0000, 2.706289344946502E+08, -1.041401968477733E+08, -2.132772832129999E+07,
2461743.500000000, A.D. 2027-Dec-04 00:00:00.0000, 2.741693204786898E+08, -9.548381631277606E+07, -2.051363152888027E+07,
2461750.500000000, A.D. 2027-Dec-11 00:00:00.0000, 2.771698355104933E+08, -8.663940805131361E+07, -1.965913828463886E+07,
2461757.500000000, A.D. 2027-Dec-18 00:00:00.0000, 2.796246562664827E+08, -7.762442578596845E+07, -1.876593828919110E+07,
2461764.500000000, A.D. 2027-Dec-25 00:00:00.0000, 2.815274973045097E+08, -6.845622640970910E+07, -1.783569367261570E+07,
2461771.500000000, A.D. 2028-Jan-01 00:00:00.0000, 2.828715738643697E+08, -5.915218290706846E+07, -1.687004994099064E+07,
$$EOE